start=new Date('2021-10-01T00:00:00.000Z').valueOf();
sats=[{"MEAN_MOTION_DOT":"-0.00000273","INCLINATION":"53.0553","TLE_LINE1":"1 47754U 21017AJ  21273.34456548 -.00000273  00000-0  58650-6 0  9995","DECAY_DATE":null,"CENTER_NAME":"EARTH","ECCENTRICITY":"0.00011140","COUNTRY_CODE":"US","BSTAR":"0.00000058650000","PERIAPSIS":"546.443","MEAN_MOTION":"15.06399763","OBJECT_ID":"2021-017AJ","NORAD_CAT_ID":"47754","OBJECT_NAME":"STARLINK-2171","TLE_LINE2":"2 47754  53.0553 290.1132 0001114  78.2940 281.8174 15.06399763 33360","SITE":"AFETR","ELEMENT_SET_NO":"999","OBJECT_TYPE":"PAYLOAD","MEAN_MOTION_DDOT":"0.0000000000000","REV_AT_EPOCH":"3336","FILE":"3136969","LAUNCH_DATE":"2021-03-04","EPHEMERIS_TYPE":"0","MEAN_ELEMENT_THEORY":"SGP4","REF_FRAME":"TEME","MEAN_ANOMALY":"281.8174","RA_OF_ASC_NODE":"290.1132","TIME_SYSTEM":"UTC","SEMIMAJOR_AXIS":"6925.349","ARG_OF_PERICENTER":"78.2940","RCS_SIZE":"LARGE","PERIOD":"95.592","EPOCH":"2021-09-30T08:16:10.457472","APOAPSIS":"547.986","CLASSIFICATION_TYPE":"U","GP_ID":"185861499"},{"TIME_SYSTEM":"UTC","RA_OF_ASC_NODE":"283.3928","APOAPSIS":"547.704","EPOCH":"2021-09-30T17:30:08.818272","PERIOD":"95.593","RCS_SIZE":"LARGE","ARG_OF_PERICENTER":"62.2423","SEMIMAJOR_AXIS":"6925.375","CLASSIFICATION_TYPE":"U","GP_ID":"185839317","BSTAR":"0.00002447200000","COUNTRY_CODE":"US","ECCENTRICITY":"0.00006690","CENTER_NAME":"EARTH","TLE_LINE1":"1 47755U 21017AK  21273.72926873  .00000083  00000-0  24472-4 0  9992","DECAY_DATE":null,"INCLINATION":"53.0571","MEAN_MOTION_DOT":"0.00000083","MEAN_MOTION_DDOT":"0.0000000000000","ELEMENT_SET_NO":"999","OBJECT_TYPE":"PAYLOAD","SITE":"AFETR","TLE_LINE2":"2 47755  53.0571 283.3928 0000669  62.2423 297.8634 15.06391259 32854","OBJECT_NAME":"STARLINK-2172","MEAN_MOTION":"15.06391259","OBJECT_ID":"2021-017AK","NORAD_CAT_ID":"47755","PERIAPSIS":"546.777","LAUNCH_DATE":"2021-03-04","FILE":"3136944","REV_AT_EPOCH":"3285","MEAN_ANOMALY":"297.8634","REF_FRAME":"TEME","MEAN_ELEMENT_THEORY":"SGP4","EPHEMERIS_TYPE":"0"},{"ECCENTRICITY":"0.00012130","COUNTRY_CODE":"US","BSTAR":"0.00003121600000","MEAN_MOTION_DOT":"0.00000184","INCLINATION":"53.0555","TLE_LINE1":"1 47756U 21017AL  21273.73896007  .00000184  00000-0  31216-4 0  9995","CENTER_NAME":"EARTH","DECAY_DATE":null,"OBJECT_NAME":"STARLINK-2174","TLE_LINE2":"2 47756  53.0555 288.3469 0001213  75.7759 284.3365 15.06399933 32780","SITE":"AFETR","OBJECT_TYPE":"PAYLOAD","ELEMENT_SET_NO":"999","MEAN_MOTION_DDOT":"0.0000000000000","PERIAPSIS":"546.374","OBJECT_ID":"2021-017AL","NORAD_CAT_ID":"47756","MEAN_MOTION":"15.06399933","REV_AT_EPOCH":"3278","FILE":"3137017","LAUNCH_DATE":"2021-03-04","REF_FRAME":"TEME","MEAN_ANOMALY":"284.3365","EPHEMERIS_TYPE":"0","MEAN_ELEMENT_THEORY":"SGP4","TIME_SYSTEM":"UTC","RA_OF_ASC_NODE":"288.3469","PERIOD":"95.592","APOAPSIS":"548.054","EPOCH":"2021-09-30T17:44:06.150048","SEMIMAJOR_AXIS":"6925.349","ARG_OF_PERICENTER":"75.7759","RCS_SIZE":"LARGE","CLASSIFICATION_TYPE":"U","GP_ID":"185864382"},{"INCLINATION":"53.0561","MEAN_MOTION_DOT":"-0.00000692","CENTER_NAME":"EARTH","TLE_LINE1":"1 47757U 21017AM  21273.45883136 -.00000692  00000-0 -27619-4 0  9992","DECAY_DATE":null,"ECCENTRICITY":"0.00008050","COUNTRY_CODE":"US","BSTAR":"-0.00002761900000","PERIAPSIS":"546.672","OBJECT_ID":"2021-017AM","MEAN_MOTION":"15.06394837","NORAD_CAT_ID":"47757","TLE_LINE2":"2 47757  53.0561 289.5988 0000805  72.5291 287.5785 15.06394837 32744","SITE":"AFETR","OBJECT_NAME":"STARLINK-2175","MEAN_MOTION_DDOT":"0.0000000000000","ELEMENT_SET_NO":"999","OBJECT_TYPE":"PAYLOAD","REV_AT_EPOCH":"3274","LAUNCH_DATE":"2021-03-04","FILE":"3137017","EPHEMERIS_TYPE":"0","MEAN_ELEMENT_THEORY":"SGP4","MEAN_ANOMALY":"287.5785","REF_FRAME":"TEME","RA_OF_ASC_NODE":"289.5988","TIME_SYSTEM":"UTC","ARG_OF_PERICENTER":"72.5291","SEMIMAJOR_AXIS":"6925.364","RCS_SIZE":"MEDIUM","PERIOD":"95.592","EPOCH":"2021-09-30T11:00:43.029504","APOAPSIS":"547.787","GP_ID":"185864384","CLASSIFICATION_TYPE":"U"},{"CLASSIFICATION_TYPE":"U","GP_ID":"185861999","PERIOD":"95.593","APOAPSIS":"551.880","EPOCH":"2021-09-30T07:54:55.223712","ARG_OF_PERICENTER":"242.7036","SEMIMAJOR_AXIS":"6925.370","RCS_SIZE":"LARGE","TIME_SYSTEM":"UTC","RA_OF_ASC_NODE":"290.1810","REF_FRAME":"TEME","MEAN_ANOMALY":"117.3270","EPHEMERIS_TYPE":"0","MEAN_ELEMENT_THEORY":"SGP4","REV_AT_EPOCH":"3340","FILE":"3136969","LAUNCH_DATE":"2021-03-04","OBJECT_NAME":"STARLINK-2176","TLE_LINE2":"2 47758  53.0572 290.1810 0006708 242.7036 117.3270 15.06393158 33403","SITE":"AFETR","ELEMENT_SET_NO":"999","OBJECT_TYPE":"PAYLOAD","MEAN_MOTION_DDOT":"0.0000000000000","PERIAPSIS":"542.589","MEAN_MOTION":"15.06393158","NORAD_CAT_ID":"47758","OBJECT_ID":"2021-017AN","ECCENTRICITY":"0.00067080","COUNTRY_CODE":"US","BSTAR":"0.00001115900000","MEAN_MOTION_DOT":"-0.00000117","INCLINATION":"53.0572","CENTER_NAME":"EARTH","TLE_LINE1":"1 47758U 21017AN  21273.32980583 -.00000117  00000-0  11159-4 0  9996","DECAY_DATE":null},{"GP_ID":"185860248","CLASSIFICATION_TYPE":"U","TIME_SYSTEM":"UTC","RA_OF_ASC_NODE":"278.0591","PERIOD":"93.375","EPOCH":"2021-09-30T08:57:40.496832","APOAPSIS":"440.654","ARG_OF_PERICENTER":"85.2299","SEMIMAJOR_AXIS":"6817.854","RCS_SIZE":"LARGE","REV_AT_EPOCH":"3356","LAUNCH_DATE":"2021-03-04","FILE":"3136969","MEAN_ANOMALY":"274.8862","REF_FRAME":"TEME","EPHEMERIS_TYPE":"0","MEAN_ELEMENT_THEORY":"SGP4","ECCENTRICITY":"0.00013710","COUNTRY_CODE":"US","BSTAR":"0.00000087448000","MEAN_MOTION_DOT":"-0.00000374","INCLINATION":"53.0537","DECAY_DATE":null,"TLE_LINE1":"1 47759U 21017AP  21273.37338538 -.00000374  00000-0  87448-6 0  9990","CENTER_NAME":"EARTH","TLE_LINE2":"2 47759  53.0537 278.0591 0001371  85.2299 274.8862 15.42166261 33564","SITE":"AFETR","OBJECT_NAME":"STARLINK-2177","MEAN_MOTION_DDOT":"0.0000000000000","OBJECT_TYPE":"PAYLOAD","ELEMENT_SET_NO":"999","PERIAPSIS":"438.784","NORAD_CAT_ID":"47759","MEAN_MOTION":"15.42166261","OBJECT_ID":"2021-017AP"},{"RA_OF_ASC_NODE":"300.0208","TIME_SYSTEM":"UTC","RCS_SIZE":"LARGE","ARG_OF_PERICENTER":"106.7111","SEMIMAJOR_AXIS":"6925.333","APOAPSIS":"547.854","EPOCH":"2021-09-30T08:36:04.477824","PERIOD":"95.592","GP_ID":"185860498","CLASSIFICATION_TYPE":"U","TLE_LINE1":"1 47760U 21017AQ  21273.35838516  .00000679  00000-0  64451-4 0  9995","CENTER_NAME":"EARTH","DECAY_DATE":null,"INCLINATION":"53.0551","MEAN_MOTION_DOT":"0.00000679","BSTAR":"0.00006445100000","ECCENTRICITY":"0.00009480","COUNTRY_CODE":"US","MEAN_MOTION":"15.06405086","OBJECT_ID":"2021-017AQ","NORAD_CAT_ID":"47760","PERIAPSIS":"546.541","OBJECT_TYPE":"PAYLOAD","ELEMENT_SET_NO":"999","MEAN_MOTION_DDOT":"0.0000000000000","OBJECT_NAME":"STARLINK-2178","SITE":"AFETR","TLE_LINE2":"2 47760  53.0551 300.0208 0000948 106.7111 253.3982 15.06405086 33245","FILE":"3136969","LAUNCH_DATE":"2021-03-04","REV_AT_EPOCH":"3324","MEAN_ELEMENT_THEORY":"SGP4","EPHEMERIS_TYPE":"0","REF_FRAME":"TEME","MEAN_ANOMALY":"253.3982"},{"EPHEMERIS_TYPE":"0","MEAN_ELEMENT_THEORY":"SGP4","REF_FRAME":"TEME","MEAN_ANOMALY":"279.4990","REV_AT_EPOCH":"3335","FILE":"3136969","LAUNCH_DATE":"2021-03-04","PERIAPSIS":"546.551","MEAN_MOTION":"15.06402827","OBJECT_ID":"2021-017AR","NORAD_CAT_ID":"47761","OBJECT_NAME":"STARLINK-2179","TLE_LINE2":"2 47761  53.0542 290.2255 0000944  80.6106 279.4990 15.06402827 33358","SITE":"AFETR","ELEMENT_SET_NO":"999","OBJECT_TYPE":"PAYLOAD","MEAN_MOTION_DDOT":"0.0000000000000","MEAN_MOTION_DOT":"-0.00000229","INCLINATION":"53.0542","TLE_LINE1":"1 47761U 21017AR  21273.32245570 -.00000229  00000-0  35098-5 0  9993","DECAY_DATE":null,"CENTER_NAME":"EARTH","ECCENTRICITY":"0.00009440","COUNTRY_CODE":"US","BSTAR":"0.00000350980000","CLASSIFICATION_TYPE":"U","GP_ID":"185861749","ARG_OF_PERICENTER":"80.6106","SEMIMAJOR_AXIS":"6925.340","RCS_SIZE":"LARGE","PERIOD":"95.592","APOAPSIS":"547.859","EPOCH":"2021-09-30T07:44:20.172480","RA_OF_ASC_NODE":"290.2255","TIME_SYSTEM":"UTC"},{"EPHEMERIS_TYPE":"0","MEAN_ELEMENT_THEORY":"SGP4","REF_FRAME":"TEME","MEAN_ANOMALY":"273.4005","REV_AT_EPOCH":"3317","FILE":"3136969","LAUNCH_DATE":"2021-03-04","PERIAPSIS":"546.621","OBJECT_ID":"2021-017AS","NORAD_CAT_ID":"47762","MEAN_MOTION":"15.06393713","OBJECT_NAME":"STARLINK-2180","SITE":"AFETR","TLE_LINE2":"2 47762  53.0563 304.8123 0000883  86.7085 273.4005 15.06393713 33177","ELEMENT_SET_NO":"999","OBJECT_TYPE":"PAYLOAD","MEAN_MOTION_DDOT":"0.0000000000000","MEAN_MOTION_DOT":"-0.00000194","INCLINATION":"53.0563","TLE_LINE1":"1 47762U 21017AS  21273.41411791 -.00000194  00000-0  58495-5 0  9991","CENTER_NAME":"EARTH","DECAY_DATE":null,"ECCENTRICITY":"0.00008830","COUNTRY_CODE":"US","BSTAR":"0.00000584950000","CLASSIFICATION_TYPE":"U","GP_ID":"185861500","SEMIMAJOR_AXIS":"6925.368","ARG_OF_PERICENTER":"86.7085","RCS_SIZE":"LARGE","PERIOD":"95.593","APOAPSIS":"547.844","EPOCH":"2021-09-30T09:56:19.787424","RA_OF_ASC_NODE":"304.8123","TIME_SYSTEM":"UTC"},{"CLASSIFICATION_TYPE":"U","GP_ID":"185860748","PERIOD":"95.592","EPOCH":"2021-09-30T08:44:42.381024","APOAPSIS":"547.926","ARG_OF_PERICENTER":"78.0100","SEMIMAJOR_AXIS":"6925.347","RCS_SIZE":"LARGE","TIME_SYSTEM":"UTC","RA_OF_ASC_NODE":"294.9231","REF_FRAME":"TEME","MEAN_ANOMALY":"282.1005","EPHEMERIS_TYPE":"0","MEAN_ELEMENT_THEORY":"SGP4","REV_AT_EPOCH":"3328","FILE":"3136969","LAUNCH_DATE":"2021-03-04","OBJECT_NAME":"STARLINK-2181","TLE_LINE2":"2 47763  53.0552 294.9231 0001030  78.0100 282.1005 15.06400407 33280","SITE":"AFETR","OBJECT_TYPE":"PAYLOAD","ELEMENT_SET_NO":"999","MEAN_MOTION_DDOT":"0.0000000000000","PERIAPSIS":"546.499","OBJECT_ID":"2021-017AT","MEAN_MOTION":"15.06400407","NORAD_CAT_ID":"47763","COUNTRY_CODE":"US","ECCENTRICITY":"0.00010300","BSTAR":"0.00001288700000","INCLINATION":"53.0552","MEAN_MOTION_DOT":"-0.00000089","CENTER_NAME":"EARTH","TLE_LINE1":"1 47763U 21017AT  21273.36437941 -.00000089  00000-0  12887-4 0  9998","DECAY_DATE":null}];
